NORAD_CAT_ID,OBJECT_NAME,OBJECT_TYPE,EPOCH,MEAN_MOTION,ECCENTRICITY,INCLINATION,RA_OF_ASC_NODE,ARG_OF_PERICENTER,MEAN_ANOMALY,BSTAR,MEAN_MOTION_DOT,MEAN_MOTION_DDOT,TLE_LINE0,TLE_LINE1,TLE_LINE2,SEMIMAJOR_AXIS,PERIOD,APOGEE,PERIGEE,DECAYED
51137.0,STARLINK-3180,PAYLOAD,2023-10-05 10:11:05,15.08850604,0.0001784,53.2161,317.7231,96.8951,263.2244,0.00096747,0.00015147,0.0,0 STARLINK-3180,1 51137U 22005AK  23278.42436602  .00015147  00000-0  96747-3 0  9999,2 51137  53.2161 317.7231 0001784  96.8951 263.2244 15.08850604 96059,6917.848,95.437,540.947,538.479,0.0
51137.0,STARLINK-3180,PAYLOAD,2023-10-05 13:21:51,15.08859995,0.00017,53.2159,317.1276,97.3513,262.7672,0.00099555,0.000156,0.0,0 STARLINK-3180,1 51137U 22005AK  23278.55684340  .00015600  00000-0  99555-3 0  9991,2 51137  53.2159 317.1276 0001700  97.3513 262.7672 15.08859995 94966,6917.819,95.436,540.86,538.508,0.0
51137.0,STARLINK-3180,PAYLOAD,2023-10-05 19:43:24,15.08842349,0.0002308,53.2155,315.9357,85.464,274.6616,0.00061435,9.503e-05,0.0,0 STARLINK-3180,1 51137U 22005AK  23278.82180972  .00009503  00000-0  61435-3 0  9994,2 51137  53.2155 315.9357 0002308  85.4640 274.6616 15.08842349 96116,6917.873,95.437,541.335,538.142,0.0
51137.0,STARLINK-3180,PAYLOAD,2023-10-06 10:01:52,15.08835332,0.0001732,53.2155,313.2613,87.4864,272.6327,8.3127e-05,1.035e-05,0.0,0 STARLINK-3180,1 51137U 22005AK  23279.41797125  .00001035  00000-0  83127-4 0  9999,2 51137  53.2155 313.2613 0001732  87.4864 272.6327 15.08835332 96203,6917.895,95.438,540.958,538.561,0.0
51137.0,STARLINK-3180,PAYLOAD,2023-10-06 19:34:11,15.08840064,0.0001762,53.2168,311.4792,88.4899,271.6295,0.0002863,4.271e-05,0.0,0 STARLINK-3180,1 51137U 22005AK  23279.81541154  .00004271  00000-0  28630-3 0  9994,2 51137  53.2168 311.4792 0001762  88.4899 271.6295 15.08840064 95151,6917.88,95.438,540.964,538.526,0.0
51137.0,STARLINK-3180,PAYLOAD,2023-10-07 08:17:16,15.08846893,0.0001748,53.2163,309.1003,90.1022,270.017,0.00037032,5.612e-05,0.0,0 STARLINK-3180,1 51137U 22005AK  23280.34533075  .00005612  00000-0  37032-3 0  9993,2 51137  53.2163 309.1003 0001748  90.1022 270.0170 15.08846893 95237,6917.859,95.437,540.934,538.515,0.0
51137.0,STARLINK-3180,PAYLOAD,2023-10-07 19:24:58,15.08840914,0.0001606,53.2145,307.0176,90.0869,270.0307,0.00020768,3.019e-05,0.0,0 STARLINK-3180,1 51137U 22005AK  23280.80901225  .00003019  00000-0  20768-3 0  9997,2 51137  53.2145 307.0176 0001606  90.0869 270.0307 15.08840914 95304,6917.878,95.437,540.854,538.632,0.0
51137.0,STARLINK-3180,PAYLOAD,2023-10-08 01:46:31,15.08840847,0.0001652,53.2145,305.828,93.1417,266.9765,0.00020929,3.044e-05,0.0,0 STARLINK-3180,1 51137U 22005AK  23281.07397310  .00003044  00000-0  20929-3 0  9998,2 51137  53.2145 305.8280 0001652  93.1417 266.9765 15.08840847 96454,6917.878,95.438,540.886,538.6,0.0
51137.0,STARLINK-3180,PAYLOAD,2023-10-08 08:08:03,15.08839471,0.0001683,53.2155,304.6385,88.8051,271.3134,0.00014093,1.956e-05,0.0,0 STARLINK-3180,1 51137U 22005AK  23281.33893435  .00001956  00000-0  14093-3 0  9991,2 51137  53.2155 304.6385 0001683  88.8051 271.3134 15.08839471 95389,6917.882,95.438,540.911,538.583,0.0
51137.0,STARLINK-3180,PAYLOAD,2023-10-08 19:15:45,15.08844176,0.000169,53.2154,302.5565,90.6204,269.4982,0.0001667,2.366e-05,0.0,0 STARLINK-3180,1 51137U 22005AK  23281.80261264  .00002366  00000-0  16670-3 0  9991,2 51137  53.2154 302.5565 0001690  90.6204 269.4982 15.08844176 95459,6917.868,95.437,540.902,538.564,0.0
51137.0,STARLINK-3180,PAYLOAD,2023-10-09 07:58:50,15.08849365,0.0001819,53.2165,300.1765,100.2282,259.8916,0.00016499,2.339e-05,0.0,0 STARLINK-3180,1 51137U 22005AK  23282.33252877  .00002339  00000-0  16499-3 0  9999,2 51137  53.2165 300.1765 0001819 100.2282 259.8916 15.08849365 96641,6917.852,95.437,540.975,538.458,0.0
51137.0,STARLINK-3180,PAYLOAD,2023-10-10 01:28:05,15.08839257,0.0001696,53.2156,296.9064,93.5588,266.5598,0.00010137,1.326e-05,0.0,0 STARLINK-3180,1 51137U 22005AK  23283.06117368  .00001326  00000-0  10137-3 0  9993,2 51137  53.2156 296.9064 0001696  93.5588 266.5598 15.08839257 96753,6917.883,95.438,540.921,538.574,0.0
51137.0,STARLINK-3180,PAYLOAD,2023-10-10 07:49:37,15.08843881,0.0001695,53.217,295.7167,98.6797,261.4387,0.00010634,1.405e-05,0.0,0 STARLINK-3180,1 51137U 22005AK  23283.32613013  .00001405  00000-0  10634-3 0  9990,2 51137  53.2170 295.7167 0001695  98.6797 261.4387 15.08843881 95686,6917.869,95.437,540.906,538.561,0.0
51137.0,STARLINK-3180,PAYLOAD,2023-10-10 17:21:56,15.08839321,0.0001648,53.2166,293.9328,98.478,261.6399,4.5494e-05,4.36e-06,0.0,0 STARLINK-3180,1 51137U 22005AK  23283.72357437  .00000436  00000-0  45494-4 0  9995,2 51137  53.2166 293.9328 0001648  98.4780 261.6399 15.08839321 95744,6917.882,95.438,540.888,538.607,0.0
51137.0,STARLINK-3180,PAYLOAD,2023-10-11 01:18:53,15.0882614,0.0001576,53.2196,292.4493,95.9447,264.1725,5.2907e-05,5.54e-06,0.0,0 STARLINK-3180,1 51137U 22005AK  23284.05478325  .00000554  00000-0  52907-4 0  9990,2 51137  53.2196 292.4493 0001576  95.9447 264.1725 15.08826140 96901,6917.923,95.438,540.878,538.697,0.0
51137.0,STARLINK-3180,PAYLOAD,2023-10-11 12:26:34,15.08840468,0.0001699,53.2172,290.3648,95.2856,264.833,2.5809e-05,1.23e-06,0.0,0 STARLINK-3180,1 51137U 22005AK  23284.51845743  .00000123  00000-0  25809-4 0  9996,2 51137  53.2172 290.3648 0001699  95.2856 264.8330 15.08840468 95869,6917.879,95.438,540.919,538.569,0.0
51137.0,STARLINK-3180,PAYLOAD,2023-10-11 17:12:43,15.08843787,0.0001668,53.2171,289.4726,95.2738,264.8444,-5.1914e-06,-3.71e-06,0.0,0 STARLINK-3180,1 51137U 22005AK  23284.71717558 -.00000371  00000-0 -51914-5 0  9994,2 51137  53.2171 289.4726 0001668  95.2738 264.8444 15.08843787 97000,6917.869,95.437,540.888,538.58,0.0
51137.0,STARLINK-3180,PAYLOAD,2023-10-12 04:20:26,15.08833052,0.0001754,53.2172,287.3911,102.2524,257.8665,5.9747e-05,6.63e-06,0.0,0 STARLINK-3180,1 51137U 22005AK  23285.18086532  .00000663  00000-0  59747-4 0  9990,2 51137  53.2172 287.3911 0001754 102.2524 257.8665 15.08833052 97070,6917.902,95.438,540.98,538.553,0.0
51137.0,STARLINK-3180,PAYLOAD,2023-10-12 10:41:58,15.08846451,0.0001648,53.2173,286.2011,97.2892,262.8287,0.0001546,2.174e-05,0.0,0 STARLINK-3180,1 51137U 22005AK  23285.44581550  .00002174  00000-0  15460-3 0  9991,2 51137  53.2173 286.2011 0001648  97.2892 262.8287 15.08846451 96008,6917.861,95.437,540.866,538.586,0.0
51137.0,STARLINK-3180,PAYLOAD,2023-10-12 17:03:31,15.0883952,0.0001691,53.2169,285.0114,89.772,270.3465,6.6357e-05,7.68e-06,0.0,0 STARLINK-3180,1 51137U 22005AK  23285.71078119  .00000768  00000-0  66357-4 0  9992,2 51137  53.2169 285.0114 0001691  89.7720 270.3465 15.08839520 97156,6917.882,95.438,540.917,538.577,0.0
51137.0,STARLINK-3180,PAYLOAD,2023-10-13 08:57:22,15.0884082,0.0001805,53.2175,282.0362,89.9541,270.1658,0.00021138,3.078e-05,0.0,0 STARLINK-3180,1 51137U 22005AK  23286.37318149  .00003078  00000-0  21138-3 0  9999,2 51137  53.2175 282.0362 0001805  89.9541 270.1658 15.08840820 96140,6917.878,95.438,540.992,538.494,0.0
51137.0,STARLINK-3180,PAYLOAD,2023-10-13 16:54:18,15.08844769,0.0001648,53.217,280.5507,94.7307,265.3873,0.00012765,1.744e-05,0.0,0 STARLINK-3180,1 51137U 22005AK  23286.70437988  .00001744  00000-0  12765-3 0  9993,2 51137  53.2170 280.5507 0001648  94.7307 265.3873 15.08844769 96194,6917.866,95.437,540.871,538.591,0.0
51137.0,STARLINK-3180,PAYLOAD,2023-10-14 04:02:00,15.08848099,0.0001612,53.2159,278.4688,94.0575,266.0601,5.3154e-05,5.58e-06,0.0,0 STARLINK-3180,1 51137U 22005AK  23287.16805692  .00000558  00000-0  53154-4 0  9995,2 51137  53.2159 278.4688 0001612  94.0575 266.0601 15.08848099 97376,6917.856,95.437,540.836,538.605,0.0
51137.0,STARLINK-3180,PAYLOAD,2023-10-14 08:48:09,15.08858173,0.0001738,53.2159,277.576,94.0429,266.0762,0.00021214,3.091e-05,0.0,0 STARLINK-3180,1 51137U 22005AK  23287.36677138  .00003091  00000-0  21214-3 0  9995,2 51137  53.2159 277.5760 0001738  94.0429 266.0762 15.08858173 97400,6917.825,95.436,540.892,538.488,0.0
51137.0,STARLINK-3180,PAYLOAD,2023-10-15 05:28:11,15.08827473,0.0001459,53.2156,273.7112,88.814,271.3019,-0.00011172,-2.065e-05,0.0,0 STARLINK-3180,1 51137U 22005AK  23288.22790868 -.00002065  00000-0 -11172-3 0  9991,2 51137  53.2156 273.7112 0001459  88.8140 271.3019 15.08827473 97534,6917.919,95.438,540.793,538.774,0.0
51137.0,STARLINK-3180,PAYLOAD,2023-10-15 08:38:57,15.08833072,0.0001583,53.2161,273.1153,89.8376,270.2797,-7.7609e-05,-1.523e-05,0.0,0 STARLINK-3180,1 51137U 22005AK  23288.36038598 -.00001523  00000-0 -77609-4 0  9997,2 51137  53.2161 273.1153 0001583  89.8376 270.2797 15.08833072 96441,6917.902,95.438,540.862,538.671,0.0
51137.0,STARLINK-3180,PAYLOAD,2023-10-15 16:35:53,15.08835321,0.0001655,53.2173,271.6288,93.5497,266.5684,2.8259e-06,-2.43e-06,0.0,0 STARLINK-3180,1 51137U 22005AK  23288.69158709 -.00000243  00000-0  28259-5 0  9995,2 51137  53.2173 271.6288 0001655  93.5497 266.5684 15.08835321 97603,6917.895,95.438,540.905,538.615,0.0
51137.0,STARLINK-3180,PAYLOAD,2023-10-16 05:18:57,15.08854239,0.0001527,53.2156,269.2494,95.4278,264.6888,0.00049385,7.583e-05,0.0,0 STARLINK-3180,1 51137U 22005AK  23289.22150151  .00007583  00000-0  49385-3 0  9992,2 51137  53.2156 269.2494 0001527  95.4278 264.6888 15.08854239 97684,6917.837,95.437,540.758,538.646,0.0
51137.0,STARLINK-3180,PAYLOAD,2023-10-16 08:29:44,15.08858648,0.000144,53.2153,268.6548,93.4032,266.7124,0.0010377,0.00016274,0.0,0 STARLINK-3180,1 51137U 22005AK  23289.35398318  .00016274  00000-0  10377-2 0  9990,2 51137  53.2153 268.6548 0001440  93.4032 266.7124 15.08858648 96597,6917.823,95.436,540.685,538.692,0.0
51137.0,STARLINK-3180,PAYLOAD,2023-10-16 22:48:12,15.0885439,0.0001374,53.2155,265.9784,87.2341,272.8808,0.0005566,8.585e-05,0.0,0 STARLINK-3180,1 51137U 22005AK  23289.95014281  .00008585  00000-0  55660-3 0  9991,2 51137  53.2155 265.9784 0001374  87.2341 272.8808 15.08854390 96688,6917.836,95.437,540.652,538.751,0.0
